STARLINK-1298           
1 45413U 20019BF  25348.33336806  .00163603  00000+0  18471-2 0  9994
2 45413  53.0432 120.2759 0005603  93.9631  94.3514 15.61447782  5902
STARLINK-1309           
1 45414U 20019BG  25348.20683806  .00004753  00000+0  33775-3 0  9991
2 45414  53.0533 160.3675 0001606  80.8471 279.2699 15.06402534316967
STARLINK-1316           
1 45415U 20019BH  25347.90089109  .00000049  00000+0  22198-4 0  9996
2 45415  53.0533 161.7390 0001389  83.2627 276.8520 15.06396404316958
STARLINK-1318           
1 45416U 20019BJ  25348.33336806  .00061407  00000+0  53393-3 0  9999
2 45416  53.0451 109.5340 0000907 195.4813 116.8477 15.68494743  5920
STARLINK-1286           
1 45417U 20019BK  25348.24811618  .00082622  00000+0  19347-2 0  9991
2 45417  53.0525 178.6847 0005829 138.4420 221.7028 15.41405942317008
STARLINK-1308           
1 45419U 20019BM  25348.26672006  .00000048  00000+0  22110-4 0  9997
2 45419  53.0536 190.0937 0001471  91.6569 268.4589 15.06397503316590
STARLINK-1329           
1 45531U 20025A   25348.33336806  .01769690  00000+0  61790-1 0  9992
2 45531  53.0536 129.0929 0001113 121.1225  54.9465 15.26121647  5760
STARLINK-1338           
1 45532U 20025B   25348.33336806  .01634976  00000+0  93038-1 0  9991
2 45532  53.0532 129.7791 0002192  81.6545  38.1102 15.09274708  5764
STARLINK-1350           
1 45535U 20025E   25347.97022088  .00013217  00000+0  41035-3 0  9997
2 45535  53.0743  74.9685 0001619  90.0061 270.1126 15.33713079312990
STARLINK-1362           
1 45538U 20025H   25347.88056078  .00002276  00000+0  17158-3 0  9998
2 45538  53.0546 131.5485 0001090  89.7933 270.3181 15.06405410312167
STARLINK-1368           
1 45540U 20025K   25347.81887441  .00000202  00000+0  32442-4 0  9991
2 45540  53.0541 132.1076 0001393  93.0061 267.1087 15.06397697312148
STARLINK-1371           
1 45542U 20025M   25348.12113003  .00001229  00000+0  10145-3 0  9999
2 45542  53.0556 130.7469 0001331 101.2238 258.8901 15.06378343312190
STARLINK-1372           
1 45543U 20025N   25348.35703486  .00002152  00000+0  16330-3 0  9993
2 45543  53.0524 129.6912 0001841  87.9095 272.2105 15.06409633311320
STARLINK-1373           
1 45544U 20025P   25348.11006654  .00001370  00000+0  11089-3 0  9998
2 45544  53.0553 130.7980 0001313  96.0691 264.0448 15.06387802312196
STARLINK-1294           
1 45551U 20025W   25348.33336806 -.00030957  00000+0 -26306-3 0  9998
2 45551  53.0449  44.9313 0001125 126.8709 225.3292 15.68637397  5929
STARLINK-1325           
1 45554U 20025Z   25348.33336806  .00032837  00000+0  18522-3 0  9999
2 45554  53.0515  36.0076 0009600  22.7158 359.1242 15.78826129  5938
