[{"OBJECT_NAME":"STARLINK-1298","OBJECT_ID":"2020-019BF","EPOCH":"2025-12-14T08:00:03.000384","MEAN_MOTION":15.61447782,"ECCENTRICITY":0.00056034,"INCLINATION":53.0432,"RA_OF_ASC_NODE":120.2759,"ARG_OF_PERICENTER":93.9631,"MEAN_ANOMALY":94.3514,"EPHEMERIS_TYPE":0,"CLASSIFICATION_TYPE":"U","NORAD_CAT_ID":45413,"ELEMENT_SET_NO":999,"REV_AT_EPOCH":590,"BSTAR":0.0018471185,"MEAN_MOTION_DOT":0.00163603,"MEAN_MOTION_DDOT":0},{"OBJECT_NAME":"STARLINK-1309","OBJECT_ID":"2020-019BG","EPOCH":"2025-12-14T04:57:50.808384","MEAN_MOTION":15.06402534,"ECCENTRICITY":0.00016063,"INCLINATION":53.0533,"RA_OF_ASC_NODE":160.3675,"ARG_OF_PERICENTER":80.8471,"MEAN_ANOMALY":279.2699,"EPHEMERIS_TYPE":0,"CLASSIFICATION_TYPE":"U","NORAD_CAT_ID":45414,"ELEMENT_SET_NO":999,"REV_AT_EPOCH":31696,"BSTAR":0.00033775425,"MEAN_MOTION_DOT":4.753e-5,"MEAN_MOTION_DDOT":0},{"OBJECT_NAME":"STARLINK-1316","OBJECT_ID":"2020-019BH","EPOCH":"2025-12-13T21:37:16.990176","MEAN_MOTION":15.06396404,"ECCENTRICITY":0.0001389,"INCLINATION":53.0533,"RA_OF_ASC_NODE":161.739,"ARG_OF_PERICENTER":83.2627,"MEAN_ANOMALY":276.852,"EPHEMERIS_TYPE":0,"CLASSIFICATION_TYPE":"U","NORAD_CAT_ID":45415,"ELEMENT_SET_NO":999,"REV_AT_EPOCH":31695,"BSTAR":2.2197989e-5,"MEAN_MOTION_DOT":4.9e-7,"MEAN_MOTION_DDOT":0},{"OBJECT_NAME":"STARLINK-1318","OBJECT_ID":"2020-019BJ","EPOCH":"2025-12-14T08:00:03.000384","MEAN_MOTION":15.68494743,"ECCENTRICITY":9.077e-5,"INCLINATION":53.0451,"RA_OF_ASC_NODE":109.534,"ARG_OF_PERICENTER":195.4813,"MEAN_ANOMALY":116.8477,"EPHEMERIS_TYPE":0,"CLASSIFICATION_TYPE":"U","NORAD_CAT_ID":45416,"ELEMENT_SET_NO":999,"REV_AT_EPOCH":592,"BSTAR":0.00053392837,"MEAN_MOTION_DOT":0.00061407,"MEAN_MOTION_DDOT":0},{"OBJECT_NAME":"STARLINK-1286","OBJECT_ID":"2020-019BK","EPOCH":"2025-12-14T05:57:17.237952","MEAN_MOTION":15.41405942,"ECCENTRICITY":0.0005829,"INCLINATION":53.0525,"RA_OF_ASC_NODE":178.6847,"ARG_OF_PERICENTER":138.442,"MEAN_ANOMALY":221.7028,"EPHEMERIS_TYPE":0,"CLASSIFICATION_TYPE":"U","NORAD_CAT_ID":45417,"ELEMENT_SET_NO":999,"REV_AT_EPOCH":31700,"BSTAR":0.0019346571,"MEAN_MOTION_DOT":0.00082622,"MEAN_MOTION_DDOT":0},{"OBJECT_NAME":"STARLINK-1308","OBJECT_ID":"2020-019BM","EPOCH":"2025-12-14T06:24:04.613184","MEAN_MOTION":15.06397503,"ECCENTRICITY":0.00014712,"INCLINATION":53.0536,"RA_OF_ASC_NODE":190.0937,"ARG_OF_PERICENTER":91.6569,"MEAN_ANOMALY":268.4589,"EPHEMERIS_TYPE":0,"CLASSIFICATION_TYPE":"U","NORAD_CAT_ID":45419,"ELEMENT_SET_NO":999,"REV_AT_EPOCH":31659,"BSTAR":2.2110028e-5,"MEAN_MOTION_DOT":4.8e-7,"MEAN_MOTION_DDOT":0},{"OBJECT_NAME":"STARLINK-1329","OBJECT_ID":"2020-025A","EPOCH":"2025-12-14T08:00:03.000384","MEAN_MOTION":15.26121647,"ECCENTRICITY":0.00011132,"INCLINATION":53.0536,"RA_OF_ASC_NODE":129.0929,"ARG_OF_PERICENTER":121.1225,"MEAN_ANOMALY":54.9465,"EPHEMERIS_TYPE":0,"CLASSIFICATION_TYPE":"U","NORAD_CAT_ID":45531,"ELEMENT_SET_NO":999,"REV_AT_EPOCH":576,"BSTAR":0.061790153,"MEAN_MOTION_DOT":0.0176969,"MEAN_MOTION_DDOT":0},{"OBJECT_NAME":"STARLINK-1338","OBJECT_ID":"2020-025B","EPOCH":"2025-12-14T08:00:03.000384","MEAN_MOTION":15.09274708,"ECCENTRICITY":0.00021923,"INCLINATION":53.0532,"RA_OF_ASC_NODE":129.7791,"ARG_OF_PERICENTER":81.6545,"MEAN_ANOMALY":38.1102,"EPHEMERIS_TYPE":0,"CLASSIFICATION_TYPE":"U","NORAD_CAT_ID":45532,"ELEMENT_SET_NO":999,"REV_AT_EPOCH":576,"BSTAR":0.093038368,"MEAN_MOTION_DOT":0.01634976,"MEAN_MOTION_DDOT":0},{"OBJECT_NAME":"STARLINK-1350","OBJECT_ID":"2020-025E","EPOCH":"2025-12-13T23:17:07.084032","MEAN_MOTION":15.33713079,"ECCENTRICITY":0.00016195,"INCLINATION":53.0743,"RA_OF_ASC_NODE":74.9685,"ARG_OF_PERICENTER":90.0061,"MEAN_ANOMALY":270.1126,"EPHEMERIS_TYPE":0,"CLASSIFICATION_TYPE":"U","NORAD_CAT_ID":45535,"ELEMENT_SET_NO":999,"REV_AT_EPOCH":31299,"BSTAR":0.00041035024,"MEAN_MOTION_DOT":0.00013217,"MEAN_MOTION_DDOT":0},{"OBJECT_NAME":"STARLINK-1362","OBJECT_ID":"2020-025H","EPOCH":"2025-12-13T21:08:00.451392","MEAN_MOTION":15.0640541,"ECCENTRICITY":0.00010909,"INCLINATION":53.0546,"RA_OF_ASC_NODE":131.5485,"ARG_OF_PERICENTER":89.7933,"MEAN_ANOMALY":270.3181,"EPHEMERIS_TYPE":0,"CLASSIFICATION_TYPE":"U","NORAD_CAT_ID":45538,"ELEMENT_SET_NO":999,"REV_AT_EPOCH":31216,"BSTAR":0.00017157522,"MEAN_MOTION_DOT":2.276e-5,"MEAN_MOTION_DDOT":0},{"OBJECT_NAME":"STARLINK-1368","OBJECT_ID":"2020-025K","EPOCH":"2025-12-13T19:39:10.749024","MEAN_MOTION":15.06397697,"ECCENTRICITY":0.0001393,"INCLINATION":53.0541,"RA_OF_ASC_NODE":132.1076,"ARG_OF_PERICENTER":93.0061,"MEAN_ANOMALY":267.1087,"EPHEMERIS_TYPE":0,"CLASSIFICATION_TYPE":"U","NORAD_CAT_ID":45540,"ELEMENT_SET_NO":999,"REV_AT_EPOCH":31214,"BSTAR":3.244213e-5,"MEAN_MOTION_DOT":2.02e-6,"MEAN_MOTION_DDOT":0},{"OBJECT_NAME":"STARLINK-1371","OBJECT_ID":"2020-025M","EPOCH":"2025-12-14T02:54:25.634592","MEAN_MOTION":15.06378343,"ECCENTRICITY":0.00013314,"INCLINATION":53.0556,"RA_OF_ASC_NODE":130.7469,"ARG_OF_PERICENTER":101.2238,"MEAN_ANOMALY":258.8901,"EPHEMERIS_TYPE":0,"CLASSIFICATION_TYPE":"U","NORAD_CAT_ID":45542,"ELEMENT_SET_NO":999,"REV_AT_EPOCH":31219,"BSTAR":0.00010145204,"MEAN_MOTION_DOT":1.229e-5,"MEAN_MOTION_DDOT":0},{"OBJECT_NAME":"STARLINK-1372","OBJECT_ID":"2020-025N","EPOCH":"2025-12-14T08:34:07.811904","MEAN_MOTION":15.06409633,"ECCENTRICITY":0.00018413,"INCLINATION":53.0524,"RA_OF_ASC_NODE":129.6912,"ARG_OF_PERICENTER":87.9095,"MEAN_ANOMALY":272.2105,"EPHEMERIS_TYPE":0,"CLASSIFICATION_TYPE":"U","NORAD_CAT_ID":45543,"ELEMENT_SET_NO":999,"REV_AT_EPOCH":31132,"BSTAR":0.00016330058,"MEAN_MOTION_DOT":2.152e-5,"MEAN_MOTION_DDOT":0},{"OBJECT_NAME":"STARLINK-1373","OBJECT_ID":"2020-025P","EPOCH":"2025-12-14T02:38:29.749056","MEAN_MOTION":15.06387802,"ECCENTRICITY":0.00013137,"INCLINATION":53.0553,"RA_OF_ASC_NODE":130.798,"ARG_OF_PERICENTER":96.0691,"MEAN_ANOMALY":264.0448,"EPHEMERIS_TYPE":0,"CLASSIFICATION_TYPE":"U","NORAD_CAT_ID":45544,"ELEMENT_SET_NO":999,"REV_AT_EPOCH":31219,"BSTAR":0.00011089088,"MEAN_MOTION_DOT":1.37e-5,"MEAN_MOTION_DDOT":0},{"OBJECT_NAME":"STARLINK-1294","OBJECT_ID":"2020-025W","EPOCH":"2025-12-14T08:00:03.000384","MEAN_MOTION":15.68637397,"ECCENTRICITY":0.00011257,"INCLINATION":53.0449,"RA_OF_ASC_NODE":44.9313,"ARG_OF_PERICENTER":126.8709,"MEAN_ANOMALY":225.3292,"EPHEMERIS_TYPE":0,"CLASSIFICATION_TYPE":"U","NORAD_CAT_ID":45551,"ELEMENT_SET_NO":999,"REV_AT_EPOCH":592,"BSTAR":-0.00026305763,"MEAN_MOTION_DOT":-0.00030957,"MEAN_MOTION_DDOT":0},{"OBJECT_NAME":"STARLINK-1325","OBJECT_ID":"2020-025Z","EPOCH":"2025-12-14T08:00:03.000384","MEAN_MOTION":15.78826129,"ECCENTRICITY":0.00096004,"INCLINATION":53.0515,"RA_OF_ASC_NODE":36.0076,"ARG_OF_PERICENTER":22.7158,"MEAN_ANOMALY":359.1242,"EPHEMERIS_TYPE":0,"CLASSIFICATION_TYPE":"U","NORAD_CAT_ID":45554,"ELEMENT_SET_NO":999,"REV_AT_EPOCH":593,"BSTAR":0.00018522382,"MEAN_MOTION_DOT":0.00032837,"MEAN_MOTION_DDOT":0}]
